NORAD_CAT_ID,OBJECT_NAME,OBJECT_TYPE,EPOCH,MEAN_MOTION,ECCENTRICITY,INCLINATION,RA_OF_ASC_NODE,ARG_OF_PERICENTER,MEAN_ANOMALY,BSTAR,MEAN_MOTION_DOT,MEAN_MOTION_DDOT,TLE_LINE0,TLE_LINE1,TLE_LINE2,SEMIMAJOR_AXIS,PERIOD,APOGEE,PERIGEE,DECAYED
55631.0,STARLINK-5558,PAYLOAD,2023-10-14 21:14:56,14.98329848,0.0002385,70.0019,255.098,273.3017,86.7869,-7.8457e-05,-1.029e-05,0.0,0 STARLINK-5558,1 55631U 23021D   23287.88537990 -.00001029  00000-0 -78457-4 0  9998,2 55631  70.0019 255.0980 0002385 273.3017  86.7869 14.98329848 36660,6950.193,96.107,573.716,570.401,0.0
55631.0,STARLINK-5558,PAYLOAD,2023-10-15 03:39:29,14.98319889,0.0002873,69.9994,254.4237,269.8178,90.2652,-0.00012185,-1.546e-05,0.0,0 STARLINK-5558,1 55631U 23021D   23288.15242676 -.00001546  00000-0 -12185-3 0  9992,2 55631  69.9994 254.4237 0002873 269.8178  90.2652 14.98319889 36706,6950.224,96.108,574.086,570.092,0.0
55631.0,STARLINK-5558,PAYLOAD,2023-10-15 08:27:53,14.98319574,0.0002737,69.9997,253.9188,264.956,95.1286,-0.00010373,-1.33e-05,0.0,0 STARLINK-5558,1 55631U 23021D   23288.35270752 -.00001330  00000-0 -10373-3 0  9998,2 55631  69.9997 253.9188 0002737 264.9560  95.1286 14.98319574 37033,6950.225,96.108,573.992,570.188,0.0
55631.0,STARLINK-5558,PAYLOAD,2023-10-15 14:52:25,14.98344517,0.0003111,70.0,253.246,268.1946,91.8856,-0.00034979,-4.266e-05,0.0,0 STARLINK-5558,1 55631U 23021D   23288.61973650 -.00004266  00000-0 -34979-3 0  9993,2 55631  70.0000 253.2460 0003111 268.1946  91.8856 14.98344517 36779,6950.148,96.106,574.175,569.851,0.0
55631.0,STARLINK-5558,PAYLOAD,2023-10-16 08:29:53,14.98335546,0.0002842,69.9994,251.3939,267.9637,92.1197,7.4173e-05,7.92e-06,0.0,0 STARLINK-5558,1 55631U 23021D   23289.35409214  .00000792  00000-0  74173-4 0  9994,2 55631  69.9994 251.3939 0002842 267.9637  92.1197 14.98335546 37182,6950.176,96.107,574.016,570.066,0.0
55631.0,STARLINK-5558,PAYLOAD,2023-10-18 02:09:23,14.98329733,0.0002894,70.0001,247.0172,263.683,96.3999,-2.0594e-05,-3.39e-06,0.0,0 STARLINK-5558,1 55631U 23021D   23291.08985770 -.00000339  00000-0 -20594-4 0  9990,2 55631  70.0001 247.0172 0002894 263.6830  96.3999 14.98329733 37446,6950.194,96.107,574.07,570.047,0.0
55631.0,STARLINK-5558,PAYLOAD,2023-10-18 05:21:39,14.98335415,0.0002978,69.9991,246.6806,267.9495,92.1323,-1.5233e-05,-2.75e-06,0.0,0 STARLINK-5558,1 55631U 23021D   23291.22337421 -.00000275  00000-0 -15233-4 0  9993,2 55631  69.9991 246.6806 0002978 267.9495  92.1323 14.98335415 37165,6950.176,96.107,574.111,569.971,0.0
55631.0,STARLINK-5558,PAYLOAD,2023-10-18 14:58:27,14.98333061,0.0002885,70.0005,245.6699,265.643,94.44,-8.1299e-06,-1.9e-06,0.0,0 STARLINK-5558,1 55631U 23021D   23291.62393396 -.00000190  00000-0 -81299-5 0  9992,2 55631  70.0005 245.6699 0002885 265.6430  94.4400 14.98333061 37520,6950.183,96.107,574.054,570.043,0.0
55631.0,STARLINK-5558,PAYLOAD,2023-10-19 06:59:47,14.98344476,0.0002833,69.9996,243.9873,275.7683,84.3153,5.2631e-05,5.35e-06,0.0,0 STARLINK-5558,1 55631U 23021D   23292.29152504  .00000535  00000-0  52631-4 0  9998,2 55631  69.9996 243.9873 0002833 275.7683  84.3153 14.98344476 37329,6950.148,96.106,573.982,570.044,0.0
55631.0,STARLINK-5558,PAYLOAD,2023-10-19 19:48:52,14.98334936,0.0002367,69.9995,242.6416,279.0821,81.007,4.1812e-05,4.06e-06,0.0,0 STARLINK-5558,1 55631U 23021D   23292.82561136  .00000406  00000-0  41812-4 0  9998,2 55631  69.9995 242.6416 0002367 279.0821  81.0070 14.98334936 37401,6950.178,96.107,573.688,570.398,0.0
55631.0,STARLINK-5558,PAYLOAD,2023-10-20 03:49:33,14.98328091,0.0002967,69.9996,241.7992,273.7362,86.3458,-1.598e-05,-2.84e-06,0.0,0 STARLINK-5558,1 55631U 23021D   23293.15941601 -.00000284  00000-0 -15980-4 0  9997,2 55631  69.9996 241.7992 0002967 273.7362  86.3458 14.98328091 37456,6950.199,96.107,574.126,570.002,0.0
55631.0,STARLINK-5558,PAYLOAD,2023-10-20 07:01:49,14.98328365,0.0002849,70.0001,241.463,272.8192,87.264,2.6325e-07,-9e-07,0.0,0 STARLINK-5558,1 55631U 23021D   23293.29293563 -.00000090  00000-0  26325-6 0  9990,2 55631  70.0001 241.4630 0002849 272.8192  87.2640 14.98328365 37774,6950.198,96.107,574.043,570.083,0.0
55631.0,STARLINK-5558,PAYLOAD,2023-10-20 21:27:02,14.98326106,0.0002604,70.0003,239.9481,266.135,93.9511,-1.0398e-05,-2.17e-06,0.0,0 STARLINK-5558,1 55631U 23021D   23293.89377765 -.00000217  00000-0 -10398-4 0  9996,2 55631  70.0003 239.9481 0002604 266.1350  93.9511 14.98326106 37865,6950.205,96.107,573.88,570.26,0.0
55631.0,STARLINK-5558,PAYLOAD,2023-10-21 05:27:42,14.9838068,0.0002861,70.0006,239.107,273.7607,86.3225,-0.0008833,-0.0001063,0.0,0 STARLINK-5558,1 55631U 23021D   23294.22757068 -.00010630  00000-0 -88330-3 0  9992,2 55631  70.0006 239.1070 0002861 273.7607  86.3225 14.98380680 37616,6950.036,96.104,573.89,569.913,0.0
55631.0,STARLINK-5558,PAYLOAD,2023-10-21 13:28:21,14.9837755,0.0002942,70.0004,238.2643,279.7253,80.3574,-0.0007128,-8.598e-05,0.0,0 STARLINK-5558,1 55631U 23021D   23294.56135950 -.00008598  00000-0 -71280-3 0  9995,2 55631  70.0004 238.2643 0002942 279.7253  80.3574 14.98377550 37964,6950.046,96.104,573.956,569.866,0.0
55631.0,STARLINK-5558,PAYLOAD,2023-10-21 23:05:10,14.98334325,0.0002871,69.9998,237.2551,270.4998,89.5832,0.00010867,1.204e-05,0.0,0 STARLINK-5558,1 55631U 23021D   23294.96192686  .00001204  00000-0  10867-3 0  9997,2 55631  69.9998 237.2551 0002871 270.4998  89.5832 14.98334325 38024,6950.18,96.107,574.04,570.049,0.0
55631.0,STARLINK-5558,PAYLOAD,2023-10-22 03:53:34,14.98339717,0.000272,69.9998,236.7492,268.0776,92.0071,0.0001348,1.516e-05,0.0,0 STARLINK-5558,1 55631U 23021D   23295.16220141  .00001516  00000-0  13480-3 0  9998,2 55631  69.9998 236.7492 0002720 268.0776  92.0071 14.98339717 37755,6950.163,96.106,573.918,570.137,0.0
55631.0,STARLINK-5558,PAYLOAD,2023-10-22 13:30:22,14.98375101,0.00019,70.0012,235.7383,281.1877,78.9069,-0.00089679,-0.00010789,0.0,0 STARLINK-5558,1 55631U 23021D   23295.56276550 -.00010789  00000-0 -89679-3 0  9994,2 55631  70.0012 235.7383 0001900 281.1877  78.9069 14.98375101 38118,6950.053,96.104,573.239,570.598,0.0
55631.0,STARLINK-5558,PAYLOAD,2023-10-22 21:31:05,14.98313561,0.0002889,70.0001,234.8994,268.3584,91.7244,-0.00018621,-2.313e-05,0.0,0 STARLINK-5558,1 55631U 23021D   23295.89658694 -.00002313  00000-0 -18621-3 0  9996,2 55631  70.0001 234.8994 0002889 268.3584  91.7244 14.98313561 38168,6950.244,96.108,574.117,570.101,0.0
55631.0,STARLINK-5558,PAYLOAD,2023-10-23 03:55:37,14.98315738,0.0002798,69.9999,234.2242,269.2915,90.7924,-8.2347e-05,-1.075e-05,0.0,0 STARLINK-5558,1 55631U 23021D   23296.16362481 -.00001075  00000-0 -82347-4 0  9994,2 55631  69.9999 234.2242 0002798 269.2915  90.7924 14.98315738 37901,6950.237,96.108,574.047,570.157,0.0
55631.0,STARLINK-5558,PAYLOAD,2023-10-23 21:33:05,14.98330769,0.0002959,69.9998,232.3738,272.8062,87.2759,-5.1326e-05,-7.05e-06,0.0,0 STARLINK-5558,1 55631U 23021D   23296.89797607 -.00000705  00000-0 -51326-4 0  9998,2 55631  69.9998 232.3738 0002959 272.8062  87.2759 14.98330769 38315,6950.191,96.107,574.112,569.999,0.0
55631.0,STARLINK-5558,PAYLOAD,2023-10-24 03:57:37,14.98334912,0.0002845,69.9999,231.6999,271.4136,88.6697,-1.2432e-05,-2.41e-06,0.0,0 STARLINK-5558,1 55631U 23021D   23297.16501231 -.00000241  00000-0 -12432-4 0  9995,2 55631  69.9999 231.6999 0002845 271.4136  88.6697 14.98334912 38059,6950.178,96.107,574.02,570.065,0.0
55631.0,STARLINK-5558,PAYLOAD,2023-10-24 13:34:25,14.98331059,0.0002548,70.0005,230.6907,270.8899,89.1968,4.3602e-05,4.27e-06,0.0,0 STARLINK-5558,1 55631U 23021D   23297.56557255  .00000427  00000-0  43602-4 0  9993,2 55631  70.0005 230.6907 0002548 270.8899  89.1968 14.98331059 38413,6950.19,96.107,573.826,570.284,0.0
55631.0,STARLINK-5558,PAYLOAD,2023-10-25 21:37:06,14.98330394,0.0002953,69.9997,227.3245,273.3802,86.702,-2.3613e-05,-3.75e-06,0.0,0 STARLINK-5558,1 55631U 23021D   23298.90077427 -.00000375  00000-0 -23613-4 0  9994,2 55631  69.9997 227.3245 0002953 273.3802  86.7020 14.98330394 38312,6950.192,96.107,574.109,570.004,0.0
55631.0,STARLINK-5558,PAYLOAD,2023-10-26 05:37:46,14.98331426,0.0002733,70.0002,226.483,271.5761,88.5085,2.4376e-05,1.98e-06,0.0,0 STARLINK-5558,1 55631U 23021D   23299.23457169  .00000198  00000-0  24376-4 0  9994,2 55631  70.0002 226.4830 0002733 271.5761  88.5085 14.98331426 38668,6950.188,96.107,573.953,570.154,0.0
55631.0,STARLINK-5558,PAYLOAD,2023-10-26 21:39:07,14.98334423,0.0002772,70.0004,224.7998,272.4963,87.5879,-2.7801e-05,-4.25e-06,0.0,0 STARLINK-5558,1 55631U 23021D   23299.90216927 -.00000425  00000-0 -27801-4 0  9994,2 55631  70.0004 224.7998 0002772 272.4963  87.5879 14.98334423 38764,6950.179,96.107,573.971,570.118,0.0
55631.0,STARLINK-5558,PAYLOAD,2023-10-27 04:03:39,14.98338664,0.000246,70.0013,224.128,255.2703,104.8184,1.7569e-05,1.17e-06,0.0,0 STARLINK-5558,1 55631U 23021D   23300.16920370  .00000117  00000-0  17569-4 0  9995,2 55631  70.0013 224.1280 0002460 255.2703 104.8184 14.98338664 38502,6950.166,96.106,573.741,570.321,0.0
55631.0,STARLINK-5558,PAYLOAD,2023-10-27 12:04:19,14.98344028,0.0002895,69.9994,223.2847,271.1477,88.9351,-0.00015892,-1.989e-05,0.0,0 STARLINK-5558,1 55631U 23021D   23300.50300276 -.00001989  00000-0 -15892-3 0  9996,2 55631  69.9994 223.2847 0002895 271.1477  88.9351 14.98344028 38850,6950.15,96.106,574.027,570.002,0.0
55631.0,STARLINK-5558,PAYLOAD,2023-10-27 18:28:52,14.9831064,0.0002534,70.0012,222.6132,270.0782,90.0087,0.00030863,3.59e-05,0.0,0 STARLINK-5558,1 55631U 23021D   23300.77004976  .00003590  00000-0  30863-3 0  9996,2 55631  70.0012 222.6132 0002534 270.0782  90.0087 14.98310640 38595,6950.253,96.108,573.879,570.357,0.0
55631.0,STARLINK-5558,PAYLOAD,2023-10-27 21:41:08,14.98326049,0.0002407,70.0006,222.2771,264.3917,95.6968,-1.8424e-05,-3.13e-06,0.0,0 STARLINK-5558,1 55631U 23021D   23300.90357181 -.00000313  00000-0 -18424-4 0  9992,2 55631  70.0006 222.2771 0002407 264.3917  95.6968 14.98326049 38913,6950.205,96.107,573.743,570.397,0.0
